[Satellite]
VERSION=1.1
NAME=GPS BIIF-9  (PRN 26)
NICKNAME=GPS BIIF-9  (PRN 26)
TLE1=1 40534U 15013A   18019.81315669 -.00000056  00000-0  00000+0 0  9995
TLE2=2 40534  54.8368 330.9040 0025861 353.5477   6.4261  2.00572665 20674
